CTC2_L_00309001-01
1 10000U 26903ZJ  26075.70043981  .00000000  00000+0  00000-0 0  9992
2 10000  85.0000   0.0000 0000000   0.0000   0.0000 13.72670257    17
CTC2_L_00309001-02
1 10001U 22166NX  26075.70043981  .00000000  00000+0  00000-0 0  9990
2 10001  85.0000   0.0000 0000000   0.0000  90.0000 13.72670257    17
CTC2_L_00309001-03
1 10002U 26996R   26075.70043981  .00000000  00000+0  00000-0 0  9996
2 10002  85.0000   0.0000 0000000   0.0000 180.0000 13.72670257    18
CTC2_L_00309001-04
1 10003U 26997XD  26075.70043981  .00000000  00000+0  00000-0 0  9998
2 10003  85.0000   0.0000 0000000   0.0000 270.0000 13.72670257    19
CTC2_L_00309002-01
1 10004U 22447UK  26075.70043981  .00000000  00000+0  00000-0 0  9995
2 10004  85.0000  12.0000 0000000   0.0000  12.0000 13.72670257    17
CTC2_L_00309002-02
1 10005U 22902SH  26075.70043981  .00000000  00000+0  00000-0 0  9992
2 10005  85.0000  12.0000 0000000   0.0000 102.0000 13.72670257    18
CTC2_L_00309002-03
1 10006U 22814SI  26075.70043981  .00000000  00000+0  00000-0 0  9995
2 10006  85.0000  12.0000 0000000   0.0000 192.0000 13.72670257    18
CTC2_L_00309002-04
1 10007U 23582ZF  26075.70043981  .00000000  00000+0  00000-0 0  9999
2 10007  85.0000  12.0000 0000000   0.0000 282.0000 13.72670257    19
CTC2_L_00309003-01
1 10008U 23973YK  26075.70043981  .00000000  00000+0  00000-0 0  9994
2 10008  85.0000  24.0000 0000000   0.0000  24.0000 13.72670257    17
CTC2_L_00309003-02
1 10009U 23044QL  26075.70043981  .00000000  00000+0  00000-0 0  9994
2 10009  85.0000  24.0000 0000000   0.0000 114.0000 13.72670257    18
CTC2_L_00309003-03
1 10010U 25846TZ  26075.70043981  .00000000  00000+0  00000-0 0  9998
2 10010  85.0000  24.0000 0000000   0.0000 204.0000 13.72670257    10
CTC2_L_00309003-04
1 10011U 22571EE  26075.70043981  .00000000  00000+0  00000-0 0  9991
2 10011  85.0000  24.0000 0000000   0.0000 294.0000 13.72670257    10
CTC2_L_00309004-01
1 10012U 25283OC  26075.70043981  .00000000  00000+0  00000-0 0  9995
2 10012  85.0000  36.0000 0000000   0.0000  36.0000 13.72670257    18
CTC2_L_00309004-02
1 10013U 22762ZI  26075.70043981  .00000000  00000+0  00000-0 0  9995
2 10013  85.0000  36.0000 0000000   0.0000 126.0000 13.72670257    19
CTC2_L_00309004-03
1 10014U 23278UV  26075.70043981  .00000000  00000+0  00000-0 0  9999
2 10014  85.0000  36.0000 0000000   0.0000 216.0000 13.72670257    10
CTC2_L_00309004-04
1 10015U 22557ZQ  26075.70043981  .00000000  00000+0  00000-0 0  9999
2 10015  85.0000  36.0000 0000000   0.0000 306.0000 13.72670257    11
CTC2_L_00309005-01
1 10016U 26446AN  26075.70043981  .00000000  00000+0  00000-0 0  9991
2 10016  85.0000  48.0000 0000000   0.0000  48.0000 13.72670257    18
CTC2_L_00309005-02
1 10017U 23348KB  26075.70043981  .00000000  00000+0  00000-0 0  9990
2 10017  85.0000  48.0000 0000000   0.0000 138.0000 13.72670257    19
CTC2_L_00309005-03
1 10018U 22682YE  26075.70043981  .00000000  00000+0  00000-0 0  9991
2 10018  85.0000  48.0000 0000000   0.0000 228.0000 13.72670257    10
CTC2_L_00309005-04
1 10019U 23369ID  26075.70043981  .00000000  00000+0  00000-0 0  9995
2 10019  85.0000  48.0000 0000000   0.0000 318.0000 13.72670257    11
CTC2_L_00309006-01
1 10020U 22108MG  26075.70043981  .00000000  00000+0  00000-0 0  9997
2 10020  85.0000  60.0000 0000000   0.0000  60.0000 13.72670257    11
CTC2_L_00309006-02
1 10021U 24722OG  26075.70043981  .00000000  00000+0  00000-0 0  9992
2 10021  85.0000  60.0000 0000000   0.0000 150.0000 13.72670257    12
CTC2_L_00309006-03
1 10022U 26805CU  26075.70043981  .00000000  00000+0  00000-0 0  9997
2 10022  85.0000  60.0000 0000000   0.0000 240.0000 13.72670257    13
CTC2_L_00309006-04
1 10023U 26325SP  26075.70043981  .00000000  00000+0  00000-0 0  9995
2 10023  85.0000  60.0000 0000000   0.0000 330.0000 13.72670257    14
CTC2_L_00309007-01
1 10024U 22311A   26075.70043981  .00000000  00000+0  00000-0 0  9997
2 10024  85.0000  72.0000 0000000   0.0000  72.0000 13.72670257    11
CTC2_L_00309007-02
1 10025U 25675HE  26075.70043981  .00000000  00000+0  00000-0 0  9994
2 10025  85.0000  72.0000 0000000   0.0000 162.0000 13.72670257    12
CTC2_L_00309007-03
1 10026U 26100YS  26075.70043981  .00000000  00000+0  00000-0 0  9999
2 10026  85.0000  72.0000 0000000   0.0000 252.0000 13.72670257    13
CTC2_L_00309007-04
1 10027U 25017KT  26075.70043981  .00000000  00000+0  00000-0 0  9996
2 10027  85.0000  72.0000 0000000   0.0000 342.0000 13.72670257    14
CTC2_L_00309008-01
1 10028U 26029JG  26075.70043981  .00000000  00000+0  00000-0 0  9991
2 10028  85.0000  84.0000 0000000   0.0000  84.0000 13.72670257    11
CTC2_L_00309008-02
1 10029U 22834XP  26075.70043981  .00000000  00000+0  00000-0 0  9992
2 10029  85.0000  84.0000 0000000   0.0000 174.0000 13.72670257    12
CTC2_L_00309008-03
1 10030U 25311JW  26075.70043981  .00000000  00000+0  00000-0 0  9997
2 10030  85.0000  84.0000 0000000   0.0000 264.0000 13.72670257    14
CTC2_L_00309008-04
1 10031U 25973JN  26075.70043981  .00000000  00000+0  00000-0 0  9992
2 10031  85.0000  84.0000 0000000   0.0000 354.0000 13.72670257    15
CTC2_L_00309009-01
1 10032U 23082SP  26075.70043981  .00000000  00000+0  00000-0 0  9992
2 10032  85.0000  96.0000 0000000   0.0000  96.0000 13.72670257    12
CTC2_L_00309009-02
1 10033U 22361UG  26075.70043981  .00000000  00000+0  00000-0 0  9992
2 10033  85.0000  96.0000 0000000   0.0000 186.0000 13.72670257    13
CTC2_L_00309009-03
1 10034U 22207RZ  26075.70043981  .00000000  00000+0  00000-0 0  9992
2 10034  85.0000  96.0000 0000000   0.0000 276.0000 13.72670257    14
CTC2_L_00309009-04
1 10035U 24496SD  26075.70043981  .00000000  00000+0  00000-0 0  9995
2 10035  85.0000  96.0000 0000000   0.0000   6.0000 13.72670257    16
CTC2_L_00309010-01
1 10036U 22239MY  26075.70043981  .00000000  00000+0  00000-0 0  9999
2 10036  85.0000 108.0000 0000000   0.0000 108.0000 13.72670257    14
CTC2_L_00309010-02
1 10037U 26839IR  26075.70043981  .00000000  00000+0  00000-0 0  9990
2 10037  85.0000 108.0000 0000000   0.0000 198.0000 13.72670257    14
CTC2_L_00309010-03
1 10038U 25809DV  26075.70043981  .00000000  00000+0  00000-0 0  9997
2 10038  85.0000 108.0000 0000000   0.0000 288.0000 13.72670257    15
CTC2_L_00309010-04
1 10039U 25204SV  26075.70043981  .00000000  00000+0  00000-0 0  9997
2 10039  85.0000 108.0000 0000000   0.0000  18.0000 13.72670257    17
CTC2_L_00309011-01
1 10040U 26198LQ  26075.70043981  .00000000  00000+0  00000-0 0  9992
2 10040  85.0000 120.0000 0000000   0.0000 120.0000 13.72670257    17
CTC2_L_00309011-02
1 10041U 22304QO  26075.70043981  .00000000  00000+0  00000-0 0  9998
2 10041  85.0000 120.0000 0000000   0.0000 210.0000 13.72670257    18
CTC2_L_00309011-03
1 10042U 22121TE  26075.70043981  .00000000  00000+0  00000-0 0  9996
2 10042  85.0000 120.0000 0000000   0.0000 300.0000 13.72670257    19
CTC2_L_00309011-04
1 10043U 24645IM  26075.70043981  .00000000  00000+0  00000-0 0  9990
2 10043  85.0000 120.0000 0000000   0.0000  30.0000 13.72670257    10
CTC2_L_00309012-01
1 10044U 23973ON  26075.70043981  .00000000  00000+0  00000-0 0  9994
2 10044  85.0000 132.0000 0000000   0.0000 132.0000 13.72670257    17
CTC2_L_00309012-02
1 10045U 24344IY  26075.70043981  .00000000  00000+0  00000-0 0  9998
2 10045  85.0000 132.0000 0000000   0.0000 222.0000 13.72670257    18
CTC2_L_00309012-03
1 10046U 26415PO  26075.70043981  .00000000  00000+0  00000-0 0  9990
2 10046  85.0000 132.0000 0000000   0.0000 312.0000 13.72670257    19
CTC2_L_00309012-04
1 10047U 25714MU  26075.70043981  .00000000  00000+0  00000-0 0  9992
2 10047  85.0000 132.0000 0000000   0.0000  42.0000 13.72670257    10
CTC2_L_00309013-01
1 10048U 22296PP  26075.70043981  .00000000  00000+0  00000-0 0  9995
2 10048  85.0000 144.0000 0000000   0.0000 144.0000 13.72670257    17
CTC2_L_00309013-02
1 10049U 23644FX  26075.70043981  .00000000  00000+0  00000-0 0  9994
2 10049  85.0000 144.0000 0000000   0.0000 234.0000 13.72670257    18
CTC2_L_00309013-03
1 10050U 22779UN  26075.70043981  .00000000  00000+0  00000-0 0  9994
2 10050  85.0000 144.0000 0000000   0.0000 324.0000 13.72670257    10
CTC2_L_00309013-04
1 10051U 24690PV  26075.70043981  .00000000  00000+0  00000-0 0  9999
2 10051  85.0000 144.0000 0000000   0.0000  54.0000 13.72670257    11
CTC2_L_00309014-01
1 10052U 25972RT  26075.70043981  .00000000  00000+0  00000-0 0  9994
2 10052  85.0000 156.0000 0000000   0.0000 156.0000 13.72670257    18
CTC2_L_00309014-02
1 10053U 24791ZU  26075.70043981  .00000000  00000+0  00000-0 0  9993
2 10053  85.0000 156.0000 0000000   0.0000 246.0000 13.72670257    19
CTC2_L_00309014-03
1 10054U 23722PU  26075.70043981  .00000000  00000+0  00000-0 0  9997
2 10054  85.0000 156.0000 0000000   0.0000 336.0000 13.72670257    10
CTC2_L_00309014-04
1 10055U 26397MC  26075.70043981  .00000000  00000+0  00000-0 0  9999
2 10055  85.0000 156.0000 0000000   0.0000  66.0000 13.72670257    11
CTC2_L_00309015-01
1 10056U 23642YO  26075.70043981  .00000000  00000+0  00000-0 0  9990
2 10056  85.0000 168.0000 0000000   0.0000 168.0000 13.72670257    18
CTC2_L_00309015-02
1 10057U 25261CS  26075.70043981  .00000000  00000+0  00000-0 0  9990
2 10057  85.0000 168.0000 0000000   0.0000 258.0000 13.72670257    19
CTC2_L_00309015-03
1 10058U 25490ZG  26075.70043981  .00000000  00000+0  00000-0 0  9995
2 10058  85.0000 168.0000 0000000   0.0000 348.0000 13.72670257    10
CTC2_L_00309015-04
1 10059U 25382CU  26075.70043981  .00000000  00000+0  00000-0 0  9996
2 10059  85.0000 168.0000 0000000   0.0000  78.0000 13.72670257    11
CTC2_L_00309016-01
1 10060U 23719IW  26075.70043981  .00000000  00000+0  00000-0 0  9990
2 10060  85.0000 180.0000 0000000   0.0000 180.0000 13.72670257    11
CTC2_L_00309016-02
1 10061U 25947E   26075.70043981  .00000000  00000+0  00000-0 0  9996
2 10061  85.0000 180.0000 0000000   0.0000 270.0000 13.72670257    12
